ONEWEB-0291             
1 49081U 21075G   24194.39865548  .00000081  00000+0  17516-3 0  9996
2 49081  87.9179 146.1963 0001865  85.2340 274.9004 13.17649295140791
ONEWEB-0293             
1 49082U 21075H   24194.57636497  .00000101  00000+0  22607-3 0  9996
2 49082  87.9182 146.1762 0001768  81.3633 278.7699 13.17650723140843
ONEWEB-0294             
1 49083U 21075J   24194.51682471  .00000327  00000+0  87291-3 0  9994
2 49083  87.8948 130.9949 0001370  79.4619 280.6664 13.12440879142145
ONEWEB-0295             
1 49084U 21075K   24194.57799600 -.00000851  00000+0 -22263-2 0  9995
2 49084  87.9183 146.1533 0001919  93.8355 266.2996 13.17641130140809
ONEWEB-0296             
1 49085U 21075L   24194.57360126  .00000367  00000+0  98412-3 0  9993
2 49085  87.8951 130.9847 0001449  96.9790 263.1504 13.12445022142154
ONEWEB-0297             
1 49086U 21075M   24194.52817269  .00000002  00000+0 -29790-4 0  9995
2 49086  87.8959 131.0024 0002092  81.3466 278.7900 13.12443488142757
ONEWEB-0298             
1 49087U 21075N   24194.58122354  .00000104  00000+0  23419-3 0  9999
2 49087  87.9184 146.1716 0002147  87.4873 272.6505 13.17648480140839
ONEWEB-0299             
1 49088U 21075P   24194.58283063  .00000093  00000+0  20748-3 0  9994
2 49088  87.9178 146.1395 0002041  90.0151 270.1214 13.17651567140816
